NORAD_CAT_ID,OBJECT_NAME,OBJECT_TYPE,EPOCH,MEAN_MOTION,ECCENTRICITY,INCLINATION,RA_OF_ASC_NODE,ARG_OF_PERICENTER,MEAN_ANOMALY,BSTAR,MEAN_MOTION_DOT,MEAN_MOTION_DDOT,TLE_LINE0,TLE_LINE1,TLE_LINE2,SEMIMAJOR_AXIS,PERIOD,APOGEE,PERIGEE,DECAYED
50823.0,STARLINK-3334,PAYLOAD,2023-06-15 17:41:30,15.08847015,0.0001034,53.2174,329.1029,80.9351,279.1758,0.00015031,2.106e-05,0.0,0 STARLINK-3334,1 50823U 22001W   23166.73716387  .00002106  00000-0  15031-3 0  9995,2 50823  53.2174 329.1029 0001034  80.9351 279.1758 15.08847015 79758,6917.859,95.437,540.439,539.009,0.0
50823.0,STARLINK-3334,PAYLOAD,2023-06-16 11:10:45,15.08843707,0.0001077,53.2172,325.833,81.6124,278.499,0.00010444,1.375e-05,0.0,0 STARLINK-3334,1 50823U 22001W   23167.46580391  .00001375  00000-0  10444-3 0  9990,2 50823  53.2172 325.8330 0001077  81.6124 278.4990 15.08843707 79863,6917.869,95.437,540.479,538.989,0.0
50823.0,STARLINK-3334,PAYLOAD,2023-06-16 14:21:31,15.08844589,0.0001114,53.2179,325.2389,79.0373,281.0745,0.00013063,1.792e-05,0.0,0 STARLINK-3334,1 50823U 22001W   23167.59828264  .00001792  00000-0  13063-3 0  9991,2 50823  53.2179 325.2389 0001114  79.0373 281.0745 15.08844589 81160,6917.866,95.437,540.502,538.961,0.0
50823.0,STARLINK-3334,PAYLOAD,2023-06-16 17:32:17,15.08850926,0.0001024,53.218,324.6434,84.4011,275.7098,0.00017259,2.461e-05,0.0,0 STARLINK-3334,1 50823U 22001W   23167.73075680  .00002461  00000-0  17259-3 0  9998,2 50823  53.2180 324.6434 0001024  84.4011 275.7098 15.08850926 79907,6917.847,95.437,540.42,539.004,0.0
50823.0,STARLINK-3334,PAYLOAD,2023-06-17 03:04:36,15.08836626,0.0001118,53.2171,322.8575,87.0303,273.0817,-6.2299e-05,-1.279e-05,0.0,0 STARLINK-3334,1 50823U 22001W   23168.12820550 -.00001279  00000-0 -62299-4 0  9999,2 50823  53.2171 322.8575 0001118  87.0303 273.0817 15.08836626 81241,6917.891,95.438,540.529,538.982,0.0
50823.0,STARLINK-3334,PAYLOAD,2023-06-17 17:23:06,15.08820423,8.22e-05,53.2183,320.1834,108.9598,251.1483,-9.6709e-05,-1.826e-05,0.0,0 STARLINK-3334,1 50823U 22001W   23168.72438549 -.00001826  00000-0 -96709-4 0  9999,2 50823  53.2183 320.1834 0000822 108.9598 251.1483 15.08820423 81337,6917.94,95.439,540.374,539.237,0.0
50823.0,STARLINK-3334,PAYLOAD,2023-06-18 18:49:15,15.08845845,9.35e-05,53.2181,315.4252,104.2839,255.8257,0.000102,1.336e-05,0.0,0 STARLINK-3334,1 50823U 22001W   23169.78420842  .00001336  00000-0  10200-3 0  9998,2 50823  53.2181 315.4252 0000935 104.2839 255.8257 15.08845845 81490,6917.863,95.437,540.374,539.081,0.0
50823.0,STARLINK-3334,PAYLOAD,2023-06-19 02:46:11,15.08852022,8.75e-05,53.2181,313.9373,91.0613,269.0479,5.9793e-05,6.64e-06,0.0,0 STARLINK-3334,1 50823U 22001W   23170.11540514  .00000664  00000-0  59793-4 0  9990,2 50823  53.2181 313.9373 0000875  91.0613 269.0479 15.08852022 80265,6917.844,95.437,540.314,539.103,0.0
50823.0,STARLINK-3334,PAYLOAD,2023-06-20 02:36:59,15.08828198,2.78e-05,53.2181,309.4778,131.1586,228.943,4.9488e-05,5e-06,0.0,0 STARLINK-3334,1 50823U 22001W   23171.10902263  .00000500  00000-0  49488-4 0  9992,2 50823  53.2181 309.4778 0000278 131.1586 228.9430 15.08828198 81692,6917.916,95.438,539.974,539.589,0.0
50823.0,STARLINK-3334,PAYLOAD,2023-06-20 15:20:04,15.08835707,2.56e-05,53.2193,307.0967,86.6789,273.4233,-0.00012801,-2.324e-05,0.0,0 STARLINK-3334,1 50823U 22001W   23171.63893596 -.00002324  00000-0 -12801-3 0  9994,2 50823  53.2193 307.0967 0000256  86.6789 273.4233 15.08835707 81773,6917.894,95.438,539.936,539.581,0.0
50823.0,STARLINK-3334,PAYLOAD,2023-06-20 18:30:50,15.08842561,8.82e-05,53.2175,306.5026,80.8706,279.2386,-3.6501e-05,-8.69e-06,0.0,0 STARLINK-3334,1 50823U 22001W   23171.77141289 -.00000869  00000-0 -36501-4 0  9990,2 50823  53.2175 306.5026 0000882  80.8706 279.2386 15.08842561 80513,6917.873,95.437,540.348,539.127,0.0
50823.0,STARLINK-3334,PAYLOAD,2023-06-21 02:27:45,15.08841399,0.0001049,53.2196,305.0162,75.9927,284.1182,-7.6537e-06,-4.1e-06,0.0,0 STARLINK-3334,1 50823U 22001W   23172.10261418 -.00000410  00000-0 -76537-5 0  9991,2 50823  53.2196 305.0162 0001049  75.9927 284.1182 15.08841399 81841,6917.876,95.437,540.467,539.015,0.0
50823.0,STARLINK-3334,PAYLOAD,2023-06-21 13:35:27,15.08840858,9.96e-05,53.218,302.9365,75.1581,284.9522,6.4595e-05,7.4e-06,0.0,0 STARLINK-3334,1 50823U 22001W   23172.56629566  .00000740  00000-0  64595-4 0  9997,2 50823  53.2180 302.9365 0000996  75.1581 284.9522 15.08840858 80634,6917.878,95.438,540.432,539.054,0.0
50823.0,STARLINK-3334,PAYLOAD,2023-06-21 15:10:50,15.08844236,0.0001002,53.2177,302.6361,91.6794,268.4313,9.5636e-05,1.235e-05,0.0,0 STARLINK-3334,1 50823U 22001W   23172.63253223  .00001235  00000-0  95636-4 0  9998,2 50823  53.2177 302.6361 0001002  91.6794 268.4313 15.08844236 80641,6917.867,95.437,540.426,539.039,0.0
50823.0,STARLINK-3334,PAYLOAD,2023-06-22 18:12:24,15.08845024,9.41e-05,53.2168,297.582,82.4271,277.6828,0.00020025,2.901e-05,0.0,0 STARLINK-3334,1 50823U 22001W   23173.75861472  .00002901  00000-0  20025-3 0  9993,2 50823  53.2168 297.5820 0000941  82.4271 277.6828 15.08845024 82092,6917.865,95.437,540.381,539.079,0.0
50823.0,STARLINK-3334,PAYLOAD,2023-06-23 08:30:52,15.08839481,9.51e-05,53.2168,294.9061,82.0302,278.0798,7.8306e-05,9.59e-06,0.0,0 STARLINK-3334,1 50823U 22001W   23174.35477756  .00000959  00000-0  78306-4 0  9995,2 50823  53.2168 294.9061 0000951  82.0302 278.0798 15.08839481 82183,6917.882,95.438,540.405,539.089,0.0
50823.0,STARLINK-3334,PAYLOAD,2023-06-24 14:43:12,15.08843088,8.44e-05,53.2178,289.259,82.9631,277.1457,2.3077e-05,8e-07,0.0,0 STARLINK-3334,1 50823U 22001W   23175.61333653  .00000080  00000-0  23077-4 0  9992,2 50823  53.2178 289.2590 0000844  82.9631 277.1457 15.08843088 82374,6917.871,95.437,540.32,539.152,0.0
50823.0,STARLINK-3334,PAYLOAD,2023-06-25 16:09:23,15.08830954,0.0001231,53.2181,284.503,99.3982,260.7149,-6.4499e-05,-1.314e-05,0.0,0 STARLINK-3334,1 50823U 22001W   23176.67318549 -.00001314  00000-0 -64499-4 0  9992,2 50823  53.2181 284.5030 0001231  99.3982 260.7149 15.08830954 82539,6917.908,95.438,540.625,538.921,0.0
50823.0,STARLINK-3334,PAYLOAD,2023-06-26 16:00:10,15.08846671,0.0001012,53.2165,280.0399,98.5751,261.5355,0.00063858,9.892e-05,0.0,0 STARLINK-3334,1 50823U 22001W   23177.66678615  .00009892  00000-0  63858-3 0  9999,2 50823  53.2165 280.0399 0001012  98.5751 261.5355 15.08846671 82689,6917.86,95.437,540.425,539.025,0.0
50823.0,STARLINK-3334,PAYLOAD,2023-06-27 11:04:47,15.08849748,0.0001017,53.2164,276.4715,87.3841,272.7268,0.00033185,4.999e-05,0.0,0 STARLINK-3334,1 50823U 22001W   23178.46166348  .00004999  00000-0  33185-3 0  9996,2 50823  53.2164 276.4715 0001017  87.3841 272.7268 15.08849748 82809,6917.851,95.437,540.419,539.012,0.0
50823.0,STARLINK-3334,PAYLOAD,2023-06-28 10:55:34,15.08846591,0.0001274,53.2167,272.0107,90.071,270.0429,0.0001467,2.048e-05,0.0,0 STARLINK-3334,1 50823U 22001W   23179.45526214  .00002048  00000-0  14670-3 0  9999,2 50823  53.2167 272.0107 0001274  90.0710 270.0429 15.08846591 82959,6917.86,95.437,540.607,538.844,0.0
50823.0,STARLINK-3334,PAYLOAD,2023-06-28 23:38:39,15.0883894,0.0001188,53.2173,269.6312,91.8418,268.271,-1.8695e-05,-5.85e-06,0.0,0 STARLINK-3334,1 50823U 22001W   23179.98518414 -.00000585  00000-0 -18695-4 0  9998,2 50823  53.2173 269.6312 0001188  91.8418 268.2710 15.08838940 83035,6917.884,95.438,540.57,538.927,0.0
50823.0,STARLINK-3334,PAYLOAD,2023-06-30 15:23:17,15.08849435,0.0001042,53.2167,262.1973,84.2089,275.9022,0.000181,2.595e-05,0.0,0 STARLINK-3334,1 50823U 22001W   23181.64117762  .00002595  00000-0  18100-3 0  9996,2 50823  53.2167 262.1973 0001042  84.2089 275.9022 15.08849435 83287,6917.852,95.437,540.437,538.996,0.0
50823.0,STARLINK-3334,PAYLOAD,2023-07-01 08:52:33,15.08833802,9.84e-05,53.2165,258.9266,91.7621,268.3484,5.5193e-06,-2e-06,0.0,0 STARLINK-3334,1 50823U 22001W   23182.36982687 -.00000200  00000-0  55193-5 0  9999,2 50823  53.2165 258.9266 0000984  91.7621 268.3484 15.08833802 83393,6917.899,95.438,540.445,539.084,0.0
50823.0,STARLINK-3334,PAYLOAD,2023-07-02 11:54:06,15.08844585,9.37e-05,53.2165,253.8722,85.9729,274.137,0.00010327,1.356e-05,0.0,0 STARLINK-3334,1 50823U 22001W   23183.49590320  .00001356  00000-0  10327-3 0  9993,2 50823  53.2165 253.8722 0000937  85.9729 274.1370 15.08844585 83564,6917.866,95.437,540.38,539.083,0.0
50823.0,STARLINK-3334,PAYLOAD,2023-07-03 13:20:16,15.08847565,9.28e-05,53.2159,249.1146,86.5481,273.5618,0.00022428,3.284e-05,0.0,0 STARLINK-3334,1 50823U 22001W   23184.55574257  .00003284  00000-0  22428-3 0  9999,2 50823  53.2159 249.1146 0000928  86.5481 273.5618 15.08847565 83724,6917.857,95.437,540.364,539.08,0.0
50823.0,STARLINK-3334,PAYLOAD,2023-07-03 21:17:12,15.088409,9.13e-05,53.2157,247.6277,86.5535,273.5561,6.0662e-05,6.78e-06,0.0,0 STARLINK-3334,1 50823U 22001W   23184.88694464  .00000678  00000-0  60662-4 0  9995,2 50823  53.2157 247.6277 0000913  86.5535 273.5561 15.08840900 83772,6917.878,95.437,540.374,539.111,0.0
50823.0,STARLINK-3334,PAYLOAD,2023-07-04 21:07:59,15.08839226,9.59e-05,53.2171,243.1667,85.6295,274.4807,3.4205e-05,2.57e-06,0.0,0 STARLINK-3334,1 50823U 22001W   23185.88055028  .00000257  00000-0  34205-4 0  9990,2 50823  53.2171 243.1667 0000959  85.6295 274.4807 15.08839226 83924,6917.883,95.438,540.411,539.084,0.0
50823.0,STARLINK-3334,PAYLOAD,2023-07-06 14:28:00,15.08846398,9.33e-05,53.2166,235.4351,83.1401,276.9697,0.00013038,1.788e-05,0.0,0 STARLINK-3334,1 50823U 22001W   23187.60278448  .00001788  00000-0  13038-3 0  9995,2 50823  53.2166 235.4351 0000933  83.1401 276.9697 15.08846398 84187,6917.861,95.437,540.371,539.08,0.0
50823.0,STARLINK-3334,PAYLOAD,2023-07-06 20:49:33,15.08842124,9.4e-05,53.2166,234.2457,82.1134,277.9965,9.1137e-05,1.163e-05,0.0,0 STARLINK-3334,1 50823U 22001W   23187.86774791  .00001163  00000-0  91137-4 0  9999,2 50823  53.2166 234.2457 0000940  82.1134 277.9965 15.08842124 84228,6917.874,95.437,540.389,539.089,0.0
